CCSDS_OMM_VERS = 2.0
CREATION_DATE  = 
ORIGINATOR     = 

OBJECT_NAME    = ALOS (DAICHI)
OBJECT_ID      = 2006-002A
CENTER_NAME    = EARTH
REF_FRAME      = TEME
TIME_SYSTEM    = UTC
MEAN_ELEMENT_THEORY = SGP/SGP4

EPOCH          = 2026-01-19T03:27:43.968960
MEAN_MOTION    = 14.69613644
ECCENTRICITY   = .00021692
INCLINATION    = 98.1141
RA_OF_ASC_NODE = 335.3813
ARG_OF_PERICENTER = 85.9495
MEAN_ANOMALY   = 274.1958

EPHEMERIS_TYPE = 0
CLASSIFICATION_TYPE = U
NORAD_CAT_ID   = 28931
ELEMENT_SET_NO = 999
REV_AT_EPOCH   = 6620
BSTAR          = .20695805E-3
MEAN_MOTION_DOT = .1181E-4
MEAN_MOTION_DDOT = 0

CCSDS_OMM_VERS = 2.0
CREATION_DATE  = 
ORIGINATOR     = 

OBJECT_NAME    = H-2A R/B
OBJECT_ID      = 2006-002B
CENTER_NAME    = EARTH
REF_FRAME      = TEME
TIME_SYSTEM    = UTC
MEAN_ELEMENT_THEORY = SGP/SGP4

EPOCH          = 2026-01-19T07:13:25.171392
MEAN_MOTION    = 15.15353051
ECCENTRICITY   = .00542852
INCLINATION    = 98.2339
RA_OF_ASC_NODE = 162.1467
ARG_OF_PERICENTER = 50.1856
MEAN_ANOMALY   = 310.4134

EPHEMERIS_TYPE = 0
CLASSIFICATION_TYPE = U
NORAD_CAT_ID   = 28932
ELEMENT_SET_NO = 999
REV_AT_EPOCH   = 8695
BSTAR          = .419294E-3
MEAN_MOTION_DOT = .8129E-4
MEAN_MOTION_DDOT = 0

CCSDS_OMM_VERS = 2.0
CREATION_DATE  = 
ORIGINATOR     = 

OBJECT_NAME    = RESURS-DK 1
OBJECT_ID      = 2006-021A
CENTER_NAME    = EARTH
REF_FRAME      = TEME
TIME_SYSTEM    = UTC
MEAN_ELEMENT_THEORY = SGP/SGP4

EPOCH          = 2026-01-19T06:25:52.175136
MEAN_MOTION    = 15.12395035
ECCENTRICITY   = .00053275
INCLINATION    = 69.9337
RA_OF_ASC_NODE = 4.8329
ARG_OF_PERICENTER = 224.2672
MEAN_ANOMALY   = 135.8068

EPHEMERIS_TYPE = 0
CLASSIFICATION_TYPE = U
NORAD_CAT_ID   = 29228
ELEMENT_SET_NO = 999
REV_AT_EPOCH   = 8005
BSTAR          = .17679738E-3
MEAN_MOTION_DOT = .297E-4
MEAN_MOTION_DDOT = 0

CCSDS_OMM_VERS = 2.0
CREATION_DATE  = 
ORIGINATOR     = 

OBJECT_NAME    = CZ-4B R/B
OBJECT_ID      = 2006-046C
CENTER_NAME    = EARTH
REF_FRAME      = TEME
TIME_SYSTEM    = UTC
MEAN_ELEMENT_THEORY = SGP/SGP4

EPOCH          = 2026-01-19T06:11:24.097056
MEAN_MOTION    = 15.16289810
ECCENTRICITY   = .00352583
INCLINATION    = 97.5682
RA_OF_ASC_NODE = 64.2955
ARG_OF_PERICENTER = 79.4863
MEAN_ANOMALY   = 281.0339

EPHEMERIS_TYPE = 0
CLASSIFICATION_TYPE = U
NORAD_CAT_ID   = 29507
ELEMENT_SET_NO = 999
REV_AT_EPOCH   = 5255
BSTAR          = .27738551E-3
MEAN_MOTION_DOT = .5387E-4
MEAN_MOTION_DDOT = 0

CCSDS_OMM_VERS = 2.0
CREATION_DATE  = 
ORIGINATOR     = 

OBJECT_NAME    = CZ-2C R/B
OBJECT_ID      = 2007-010B
CENTER_NAME    = EARTH
REF_FRAME      = TEME
TIME_SYSTEM    = UTC
MEAN_ELEMENT_THEORY = SGP/SGP4

EPOCH          = 2026-01-19T06:28:17.641632
MEAN_MOTION    = 14.20225698
ECCENTRICITY   = .0060055
INCLINATION    = 98.3971
RA_OF_ASC_NODE = 135.0319
ARG_OF_PERICENTER = 78.2174
MEAN_ANOMALY   = 282.5732

EPHEMERIS_TYPE = 0
CLASSIFICATION_TYPE = U
NORAD_CAT_ID   = 31114
ELEMENT_SET_NO = 999
REV_AT_EPOCH   = 97270
BSTAR          = .66023322E-4
MEAN_MOTION_DOT = .103E-5
MEAN_MOTION_DDOT = 0

CCSDS_OMM_VERS = 2.0
CREATION_DATE  = 
ORIGINATOR     = 

OBJECT_NAME    = COSMO-SKYMED 1
OBJECT_ID      = 2007-023A
CENTER_NAME    = EARTH
REF_FRAME      = TEME
TIME_SYSTEM    = UTC
MEAN_ELEMENT_THEORY = SGP/SGP4

EPOCH          = 2026-01-19T05:54:43.722432
MEAN_MOTION    = 14.96075345
ECCENTRICITY   = .0000932
INCLINATION    = 97.8833
RA_OF_ASC_NODE = 209.9010
ARG_OF_PERICENTER = 80.1118
MEAN_ANOMALY   = 280.0208

EPHEMERIS_TYPE = 0
CLASSIFICATION_TYPE = U
NORAD_CAT_ID   = 31598
ELEMENT_SET_NO = 999
REV_AT_EPOCH   = 751
BSTAR          = .36408872E-3
MEAN_MOTION_DOT = .4033E-4
MEAN_MOTION_DDOT = 0

CCSDS_OMM_VERS = 2.0
CREATION_DATE  = 
ORIGINATOR     = 

OBJECT_NAME    = COSMOS 2428
OBJECT_ID      = 2007-029A
CENTER_NAME    = EARTH
REF_FRAME      = TEME
TIME_SYSTEM    = UTC
MEAN_ELEMENT_THEORY = SGP/SGP4

EPOCH          = 2026-01-19T06:15:46.641600
MEAN_MOTION    = 14.12913759
ECCENTRICITY   = .00059392
INCLINATION    = 70.9401
RA_OF_ASC_NODE = 307.1034
ARG_OF_PERICENTER = 333.5673
MEAN_ANOMALY   = 26.5144

EPHEMERIS_TYPE = 0
CLASSIFICATION_TYPE = U
NORAD_CAT_ID   = 31792
ELEMENT_SET_NO = 999
REV_AT_EPOCH   = 95711
BSTAR          = .24003001E-3
MEAN_MOTION_DOT = .399E-5
MEAN_MOTION_DDOT = 0

CCSDS_OMM_VERS = 2.0
CREATION_DATE  = 
ORIGINATOR     = 

OBJECT_NAME    = SL-16 R/B
OBJECT_ID      = 2007-029B
CENTER_NAME    = EARTH
REF_FRAME      = TEME
TIME_SYSTEM    = UTC
MEAN_ELEMENT_THEORY = SGP/SGP4

EPOCH          = 2026-01-19T03:52:45.405696
MEAN_MOTION    = 14.14822386
ECCENTRICITY   = .00021431
INCLINATION    = 70.9753
RA_OF_ASC_NODE = 276.4962
ARG_OF_PERICENTER = 273.4356
MEAN_ANOMALY   = 238.6325

EPHEMERIS_TYPE = 0
CLASSIFICATION_TYPE = U
NORAD_CAT_ID   = 31793
ELEMENT_SET_NO = 999
REV_AT_EPOCH   = 95836
BSTAR          = -.98471399E-4
MEAN_MOTION_DOT = -.238E-5
MEAN_MOTION_DDOT = 0

CCSDS_OMM_VERS = 2.0
CREATION_DATE  = 
ORIGINATOR     = 

OBJECT_NAME    = KORONAS-FOTON
OBJECT_ID      = 2009-003A
CENTER_NAME    = EARTH
REF_FRAME      = TEME
TIME_SYSTEM    = UTC
MEAN_ELEMENT_THEORY = SGP/SGP4

EPOCH          = 2026-01-19T06:32:18.193056
MEAN_MOTION    = 15.41982231
ECCENTRICITY   = .00106295
INCLINATION    = 82.4331
RA_OF_ASC_NODE = 327.1920
ARG_OF_PERICENTER = 347.4210
MEAN_ANOMALY   = 12.6770

EPHEMERIS_TYPE = 0
CLASSIFICATION_TYPE = U
NORAD_CAT_ID   = 33504
ELEMENT_SET_NO = 999
REV_AT_EPOCH   = 93812
BSTAR          = .2624272E-3
MEAN_MOTION_DOT = .11236E-3
MEAN_MOTION_DDOT = 0

CCSDS_OMM_VERS = 2.0
CREATION_DATE  = 
ORIGINATOR     = 

OBJECT_NAME    = CZ-2C R/B
OBJECT_ID      = 2011-030B
CENTER_NAME    = EARTH
REF_FRAME      = TEME
TIME_SYSTEM    = UTC
MEAN_ELEMENT_THEORY = SGP/SGP4

EPOCH          = 2026-01-19T03:36:29.356992
MEAN_MOTION    = 14.81020419
ECCENTRICITY   = .00533985
INCLINATION    = 97.8463
RA_OF_ASC_NODE = 337.4423
ARG_OF_PERICENTER = 150.1272
MEAN_ANOMALY   = 220.7795

EPHEMERIS_TYPE = 0
CLASSIFICATION_TYPE = U
NORAD_CAT_ID   = 37731
ELEMENT_SET_NO = 999
REV_AT_EPOCH   = 78276
BSTAR          = .13866957E-3
MEAN_MOTION_DOT = .1047E-4
MEAN_MOTION_DDOT = 0

CCSDS_OMM_VERS = 2.0
CREATION_DATE  = 
ORIGINATOR     = 

OBJECT_NAME    = H-2A R/B
OBJECT_ID      = 2012-025E
CENTER_NAME    = EARTH
REF_FRAME      = TEME
TIME_SYSTEM    = UTC
MEAN_ELEMENT_THEORY = SGP/SGP4

EPOCH          = 2026-01-19T03:09:15.712704
MEAN_MOTION    = 14.94701525
ECCENTRICITY   = .00461189
INCLINATION    = 98.4652
RA_OF_ASC_NODE = 342.2618
ARG_OF_PERICENTER = 113.8400
MEAN_ANOMALY   = 246.7662

EPHEMERIS_TYPE = 0
CLASSIFICATION_TYPE = U
NORAD_CAT_ID   = 38341
ELEMENT_SET_NO = 999
REV_AT_EPOCH   = 74081
BSTAR          = .21657595E-3
MEAN_MOTION_DOT = .233E-4
MEAN_MOTION_DDOT = 0

CCSDS_OMM_VERS = 2.0
CREATION_DATE  = 
ORIGINATOR     = 

OBJECT_NAME    = SHIJIAN-16 (SJ-16)
OBJECT_ID      = 2013-057A
CENTER_NAME    = EARTH
REF_FRAME      = TEME
TIME_SYSTEM    = UTC
MEAN_ELEMENT_THEORY = SGP/SGP4

EPOCH          = 2026-01-19T06:50:44.018880
MEAN_MOTION    = 14.92154865
ECCENTRICITY   = .0017735
INCLINATION    = 74.9738
RA_OF_ASC_NODE = 278.6071
ARG_OF_PERICENTER = 233.0409
MEAN_ANOMALY   = 126.9156

EPHEMERIS_TYPE = 0
CLASSIFICATION_TYPE = U
NORAD_CAT_ID   = 39358
ELEMENT_SET_NO = 999
REV_AT_EPOCH   = 66413
BSTAR          = .21864097E-3
MEAN_MOTION_DOT = .2203E-4
MEAN_MOTION_DDOT = 0

