ALOS (DAICHI)           
1 28931U 06002A   26019.14425890  .00001181  00000+0  20696-3 0  9998
2 28931  98.1141 335.3813 0002169  85.9495 274.1958 14.69613644 66207
H-2A R/B                
1 28932U 06002B   26019.30098578  .00008129  00000+0  41929-3 0  9997
2 28932  98.2339 162.1467 0054285  50.1856 310.4134 15.15353051 86959
RESURS-DK 1             
1 29228U 06021A   26019.26796499  .00002970  00000+0  17680-3 0  9994
2 29228  69.9337   4.8329 0005327 224.2672 135.8068 15.12395035 80058
CZ-4B R/B               
1 29507U 06046C   26019.25791779  .00005387  00000+0  27739-3 0  9997
2 29507  97.5682  64.2955 0035258  79.4863 281.0339 15.16289810 52557
CZ-2C R/B               
1 31114U 07010B   26019.26964863  .00000103  00000+0  66023-4 0  9994
2 31114  98.3971 135.0319 0060055  78.2174 282.5732 14.20225698972709
COSMO-SKYMED 1          
1 31598U 07023A   26019.24633938  .00004033  00000+0  36409-3 0  9998
2 31598  97.8833 209.9010 0000932  80.1118 280.0208 14.96075345  7517
COSMOS 2428             
1 31792U 07029A   26019.26095650  .00000399  00000+0  24003-3 0  9993
2 31792  70.9401 307.1034 0005939 333.5673  26.5144 14.12913759957116
SL-16 R/B               
1 31793U 07029B   26019.16163664 -.00000238  00000+0 -98471-4 0  9999
2 31793  70.9753 276.4962 0002143 273.4356 238.6325 14.14822386958361
KORONAS-FOTON           
1 33504U 09003A   26019.27243279  .00011236  00000+0  26243-3 0  9993
2 33504  82.4331 327.1920 0010629 347.4210  12.6770 15.41982231938123
CZ-2C R/B               
1 37731U 11030B   26019.15033978  .00001047  00000+0  13867-3 0  9999
2 37731  97.8463 337.4423 0053398 150.1272 220.7795 14.81020419782764
H-2A R/B                
1 38341U 12025E   26019.13143186  .00002330  00000+0  21658-3 0  9996
2 38341  98.4652 342.2618 0046118 113.8400 246.7662 14.94701525740819
SHIJIAN-16 (SJ-16)      
1 39358U 13057A   26019.28523170  .00002203  00000+0  21864-3 0  9990
2 39358  74.9738 278.6071 0017735 233.0409 126.9156 14.92154865664138
